NORAD_CAT_ID,OBJECT_NAME,OBJECT_TYPE,EPOCH,MEAN_MOTION,ECCENTRICITY,INCLINATION,RA_OF_ASC_NODE,ARG_OF_PERICENTER,MEAN_ANOMALY,BSTAR,MEAN_MOTION_DOT,MEAN_MOTION_DDOT,TLE_LINE0,TLE_LINE1,TLE_LINE2,SEMIMAJOR_AXIS,PERIOD,APOGEE,PERIGEE,DECAYED
53261.0,STARLINK-4062,PAYLOAD,2023-01-10 15:13:49,15.08844073,0.0002105,53.2189,334.8703,39.9895,320.1252,0.00010993,1.462e-05,0.0,0 STARLINK-4062,1 53261U 22086V   23010.63460558  .00001462  00000-0  10993-3 0  9996,2 53261  53.2189 334.8703 0002105  39.9895 320.1252 15.08844073 26661,6917.868,95.437,541.189,538.2769999999998,0.0
53261.0,STARLINK-4062,PAYLOAD,2023-01-11 03:56:54,15.08849125,0.0002016,53.2199,332.4909,45.2666,314.849,0.00018798,2.706e-05,0.0,0 STARLINK-4062,1 53261U 22086V   23011.16452271  .00002706  00000-0  18798-3 0  9991,2 53261  53.2199 332.4909 0002016  45.2666 314.8490 15.08849125 26927,6917.852,95.437,541.112,538.323,0.0
53261.0,STARLINK-4062,PAYLOAD,2023-01-11 21:26:08,15.08856569,0.0001961,53.2203,329.2205,45.4812,314.634,0.00025817,3.825e-05,0.0,0 STARLINK-4062,1 53261U 22086V   23011.89315496  .00003825  00000-0  25817-3 0  9991,2 53261  53.2203 329.2205 0001961  45.4812 314.6340 15.08856569 27034,6917.83,95.437,541.0509999999998,538.3380000000002,0.0
53261.0,STARLINK-4062,PAYLOAD,2023-01-12 03:47:41,15.08848649,0.0002068,53.2197,328.0309,39.4083,320.7059,0.00010816,1.434e-05,0.0,0 STARLINK-4062,1 53261U 22086V   23012.15811713  .00001434  00000-0  10816-3 0  9991,2 53261  53.2197 328.0309 0002068  39.4083 320.7059 15.08848649 26898,6917.854,95.437,541.15,538.288,0.0
53261.0,STARLINK-4062,PAYLOAD,2023-01-12 21:16:56,15.08828171,0.0002053,53.2218,324.7612,18.2919,341.8147,-0.00019229,-3.346e-05,0.0,0 STARLINK-4062,1 53261U 22086V   23012.88676420 -.00003346  00000-0 -19229-3 0  9998,2 53261  53.2218 324.7612 0002053  18.2919 341.8147 15.08828171 27182,6917.917,95.438,541.202,538.361,0.0
53261.0,STARLINK-4062,PAYLOAD,2023-01-13 00:27:42,15.08829754,0.0001846,53.2199,324.165,44.5275,315.5865,-0.0001934,-3.364e-05,0.0,0 STARLINK-4062,1 53261U 22086V   23013.01924304 -.00003364  00000-0 -19340-3 0  9995,2 53261  53.2199 324.1650 0001846  44.5275 315.5865 15.08829754 27028,6917.911999999998,95.438,541.054,538.5,0.0
53261.0,STARLINK-4062,PAYLOAD,2023-01-13 13:10:48,15.08824696,0.000206,53.2185,321.7892,36.3478,323.7654,-0.00025663,-4.369e-05,0.0,0 STARLINK-4062,1 53261U 22086V   23013.54917070 -.00004369  00000-0 -25663-3 0  9996,2 53261  53.2185 321.7892 0002060  36.3478 323.7654 15.08824696 27282,6917.927,95.439,541.217,538.367,0.0
53261.0,STARLINK-4062,PAYLOAD,2023-01-14 06:40:02,15.08838383,0.000193,53.2194,318.5169,43.4882,316.6262,0.00014389,2.003e-05,0.0,0 STARLINK-4062,1 53261U 22086V   23014.27781023  .00002003  00000-0  14389-3 0  9998,2 53261  53.2194 318.5169 0001930  43.4882 316.6262 15.08838383 27213,6917.885,95.438,541.085,538.415,0.0
53261.0,STARLINK-4062,PAYLOAD,2023-01-14 20:58:31,15.08829918,0.0001975,53.2194,315.8399,47.7312,312.3847,0.00024942,3.683e-05,0.0,0 STARLINK-4062,1 53261U 22086V   23014.87397849  .00003683  00000-0  24942-3 0  9994,2 53261  53.2194 315.8399 0001975  47.7312 312.3847 15.08829918 27308,6917.911,95.438,541.1419999999999,538.41,0.0
53261.0,STARLINK-4062,PAYLOAD,2023-01-15 04:55:26,15.08846816,0.0001802,53.2197,314.353,48.035,312.0796,0.00044818,6.853e-05,0.0,0 STARLINK-4062,1 53261U 22086V   23015.20517120  .00006853  00000-0  44818-3 0  9994,2 53261  53.2197 314.3530 0001802  48.0350 312.0796 15.08846816 27358,6917.86,95.437,540.971,538.4780000000001,0.0
53261.0,STARLINK-4062,PAYLOAD,2023-01-15 19:13:55,15.08836245,0.0002354,53.2157,311.6786,55.3001,304.8213,0.00024239,3.571e-05,0.0,0 STARLINK-4062,1 53261U 22086V   23015.80134050  .00003571  00000-0  24239-3 0  9996,2 53261  53.2157 311.6786 0002354  55.3001 304.8213 15.08836245 27442,6917.892,95.438,541.385,538.128,0.0
53261.0,STARLINK-4062,PAYLOAD,2023-01-16 03:10:50,15.08863612,0.0001536,53.2193,310.1895,60.82,299.2946,0.00039099,5.944e-05,0.0,0 STARLINK-4062,1 53261U 22086V   23016.13252584  .00005944  00000-0  39099-3 0  9992,2 53261  53.2193 310.1895 0001536  60.8200 299.2946 15.08863612 27493,6917.808000000001,95.436,540.736,538.611,0.0
53261.0,STARLINK-4062,PAYLOAD,2023-01-16 12:43:09,15.08842037,0.0001440999999999,53.2194,308.4058,68.5092,291.6054,6.7425e-05,7.85e-06,0.0,0 STARLINK-4062,1 53261U 22086V   23016.52997428  .00000785  00000-0  67425-4 0  9991,2 53261  53.2194 308.4058 0001441  68.5092 291.6054 15.08842037 27735,6917.874,95.437,540.736,538.742,0.0
53261.0,STARLINK-4062,PAYLOAD,2023-01-16 19:04:43,15.08819471,0.0001369,53.2181,307.2171,71.1847,288.9294,-0.00020663,-3.573e-05,0.0,0 STARLINK-4062,1 53261U 22086V   23016.79494697 -.00003573  00000-0 -20663-3 0  9992,2 53261  53.2181 307.2171 0001369  71.1847 288.9294 15.08819471 27596,6917.943,95.439,540.755,538.861,0.0
53261.0,STARLINK-4062,PAYLOAD,2023-01-17 01:26:15,15.08828813,0.000128,53.2187,306.029,71.1047,289.0084,-8.8895e-05,-1.702e-05,0.0,0 STARLINK-4062,1 53261U 22086V   23017.05990463 -.00001702  00000-0 -88895-4 0  9998,2 53261  53.2187 306.0290 0001280  71.1047 289.0084 15.08828813 27639,6917.915,95.438,540.665,538.894,0.0
53261.0,STARLINK-4062,PAYLOAD,2023-01-17 12:33:57,15.08828459,0.0001213,53.2181,303.9471,78.08800000000001,282.0248,4.225e-06,-2.21e-06,0.0,0 STARLINK-4062,1 53261U 22086V   23017.52358783 -.00000221  00000-0  42250-5 0  9993,2 53261  53.2181 303.9471 0001213  78.0880 282.0248 15.08828459 27885,6917.916,95.438,540.62,538.942,0.0
53261.0,STARLINK-4062,PAYLOAD,2023-01-17 18:55:30,15.08831941,0.0001291,53.2183,302.757,83.9931,276.1209,-0.0001079,-2.004e-05,0.0,0 STARLINK-4062,1 53261U 22086V   23017.78854929 -.00002004  00000-0 -10790-3 0  9998,2 53261  53.2183 302.7570 0001291  83.9931 276.1209 15.08831941 27928,6917.905,95.438,540.663,538.877,0.0
53261.0,STARLINK-4062,PAYLOAD,2023-01-18 04:27:49,15.08844428,0.0001351999999999,53.2182,300.9715,92.7886,267.3261,0.00031766,4.772e-05,0.0,0 STARLINK-4062,1 53261U 22086V   23018.18598679  .00004772  00000-0  31766-3 0  9998,2 53261  53.2182 300.9715 0001352  92.7886 267.3261 15.08844428 27804,6917.866999999999,95.437,540.6669999999999,538.797,0.0
53261.0,STARLINK-4062,PAYLOAD,2023-01-18 21:57:04,15.08838916,0.0001354,53.2184,297.7013,87.5706,272.5441,0.0004195,6.395e-05,0.0,0 STARLINK-4062,1 53261U 22086V   23018.91463534  .00006395  00000-0  41950-3 0  9999,2 53261  53.2184 297.7013 0001354  87.5706 272.5441 15.08838916 27910,6917.884,95.438,540.685,538.812,0.0
53261.0,STARLINK-4062,PAYLOAD,2023-01-19 01:07:50,15.08851382,0.0001268,53.2179,297.1079,88.8129,271.3009,0.00059872,9.256e-05,0.0,0 STARLINK-4062,1 53261U 22086V   23019.04711067  .00009256  00000-0  59872-3 0  9992,2 53261  53.2179 297.1079 0001268  88.8129 271.3009 15.08851382 27938,6917.846,95.437,540.5880000000001,538.8330000000001,0.0
53261.0,STARLINK-4062,PAYLOAD,2023-01-19 04:18:36,15.08860232,0.0001286,53.218,296.5124,89.7224,270.3916,0.00077357,0.00012052,0.0,0 STARLINK-4062,1 53261U 22086V   23019.17958790  .00012052  00000-0  77357-3 0  9998,2 53261  53.2180 296.5124 0001286  89.7224 270.3916 15.08860232 28133,6917.819,95.436,540.573,538.794,0.0
53261.0,STARLINK-4062,PAYLOAD,2023-01-19 13:50:55,15.08849785,0.000136,53.2186,294.7293,90.7488,269.3661,0.00041974,6.4e-05,0.0,0 STARLINK-4062,1 53261U 22086V   23019.57703147  .00006400  00000-0  41974-3 0  9992,2 53261  53.2186 294.7293 0001360  90.7488 269.3661 15.08849785 28015,6917.85,95.437,540.656,538.775,0.0
53261.0,STARLINK-4062,PAYLOAD,2023-01-20 00:58:37,15.08841876,0.0001107999999999,53.2181,292.647,63.79,296.3206,0.00024012,3.536e-05,0.0,0 STARLINK-4062,1 53261U 22086V   23020.04071415  .00003536  00000-0  24012-3 0  9993,2 53261  53.2181 292.6470 0001108  63.7900 296.3206 15.08841876 28088,6917.875,95.437,540.506,538.9730000000001,0.0
53261.0,STARLINK-4062,PAYLOAD,2023-01-20 10:30:56,15.08835528,0.0001214,53.2185,290.8642,65.5626,294.5493,0.00027159,4.037e-05,0.0,0 STARLINK-4062,1 53261U 22086V   23020.43815734  .00004037  00000-0  27159-3 0  9998,2 53261  53.2185 290.8642 0001214  65.5626 294.5493 15.08835528 28328,6917.894,95.438,540.599,538.919,0.0
53261.0,STARLINK-4062,PAYLOAD,2023-01-20 18:27:52,15.08827343,0.0001376999999999,53.2179,289.3783,73.4218,286.6925,-0.00015405,-2.738e-05,0.0,0 STARLINK-4062,1 53261U 22086V   23020.76936239 -.00002738  00000-0 -15405-3 0  9997,2 53261  53.2179 289.3783 0001377  73.4218 286.6925 15.08827343 28198,6917.919,95.438,540.737,538.831,0.0
53261.0,STARLINK-4062,PAYLOAD,2023-01-21 02:24:48,15.08845313,0.0001269,53.2181,287.8902,85.2105,274.9032,0.00041643,6.347e-05,0.0,0 STARLINK-4062,1 53261U 22086V   23021.10055785  .00006347  00000-0  41643-3 0  9995,2 53261  53.2181 287.8902 0001269  85.2105 274.9032 15.08845313 28245,6917.8640000000005,95.437,540.607,538.851,0.0
53261.0,STARLINK-4062,PAYLOAD,2023-01-22 11:47:53,15.08853116,0.0001301,53.2171,281.6496,98.5441,261.5699,0.00022451,3.288e-05,0.0,0 STARLINK-4062,1 53261U 22086V   23022.49159156  .00003288  00000-0  22451-3 0  9992,2 53261  53.2171 281.6496 0001301  98.5441 261.5699 15.08853116 28455,6917.84,95.437,540.605,538.805,0.0
53261.0,STARLINK-4062,PAYLOAD,2023-01-22 18:09:26,15.08837919,0.0001137,53.2168,280.4566,106.9655,253.1462,-8.4555e-05,-1.633e-05,0.0,0 STARLINK-4062,1 53261U 22086V   23022.75655599 -.00001633  00000-0 -84555-4 0  9991,2 53261  53.2168 280.4566 0001137 106.9655 253.1462 15.08837919 28496,6917.887,95.438,540.538,538.965,0.0
53261.0,STARLINK-4062,PAYLOAD,2023-01-23 02:06:21,15.08849804,0.0001063,53.2167,278.97,117.7913,242.3187,0.00051672,7.947e-05,0.0,0 STARLINK-4062,1 53261U 22086V   23023.08775137  .00007947  00000-0  51672-3 0  9994,2 53261  53.2167 278.9700 0001063 117.7913 242.3187 15.08849804 28548,6917.85,95.437,540.451,538.98,0.0
